{
  "norad_id": 66622,
  "name": "STARLINK-35950",
  "history": [
    {
      "epoch": "2026-03-28T15:00:31.912704",
      "apogee_km": 476.2144860251801,
      "perigee_km": 474.1077821787576,
      "latitude_deg": -25.040492711837874,
      "longitude_deg": -177.76454143994488,
      "semi_major_axis_km": 6853.298134101969,
      "eccentricity": 0.0001537,
      "inclination_deg": 53.1615,
      "raan_deg": 52.1347,
      "arg_perigee_deg": 87.8424,
      "mean_anomaly_deg": 272.2753,
      "mean_motion_rev_day": 15.30218064
    },
    {
      "epoch": "2026-03-29T05:07:00.505920",
      "apogee_km": 476.0013793259859,
      "perigee_km": 474.37165899313004,
      "latitude_deg": 24.122514221674976,
      "longitude_deg": -121.33277120022103,
      "semi_major_axis_km": 6853.323519159558,
      "eccentricity": 0.0001189,
      "inclination_deg": 53.1623,
      "raan_deg": 49.4043,
      "arg_perigee_deg": 90.9873,
      "mean_anomaly_deg": 269.1264,
      "mean_motion_rev_day": 15.30209562
    }
  ]
}